[{"OBJECT_NAME":"KUIPER-00082","OBJECT_ID":"2025-151N","EPOCH":"2026-03-09T21:48:21.424320","MEAN_MOTION":14.79927202,"ECCENTRICITY":6.123e-5,"INCLINATION":51.9016,"RA_OF_ASC_NODE":287.1338,"ARG_OF_PERICENTER":95.8656,"MEAN_ANOMALY":264.2376,"EPHEMERIS_TYPE":0,"CLASSIFICATION_TYPE":"U","NORAD_CAT_ID":64828,"ELEMENT_SET_NO":999,"REV_AT_EPOCH":3551,"BSTAR":0.0006160009,"MEAN_MOTION_DOT":4.477e-5,"MEAN_MOTION_DDOT":0},{"OBJECT_NAME":"FENGYUN 1C DEB","OBJECT_ID":"1999-025CBV","EPOCH":"2026-03-08T13:20:44.308896","MEAN_MOTION":14.76950564,"ECCENTRICITY":0.01886082,"INCLINATION":98.8377,"RA_OF_ASC_NODE":348.5578,"ARG_OF_PERICENTER":327.9291,"MEAN_ANOMALY":31.055,"EPHEMERIS_TYPE":0,"CLASSIFICATION_TYPE":"U","NORAD_CAT_ID":31663,"ELEMENT_SET_NO":999,"REV_AT_EPOCH":540,"BSTAR":0.00053050003,"MEAN_MOTION_DOT":4.94e-5,"MEAN_MOTION_DDOT":0}]
